QIANFAN-33              
1 61566U 24185Q   25355.14404595  .00000330  00000+0  22926-3 0  9995
2 61566  88.9799  77.8736 0005128 307.4361  52.6348 13.96555998 70335
QIANFAN-34              
1 61567U 24185R   25355.14634997  .00000353  00000+0  22158-3 0  9999
2 61567  88.9774  77.4260 0003443 317.5841  42.5072 14.02312604 70537
QIANFAN-35              
1 61568U 24185S   25355.17639323  .00000614  00000+0  24202-3 0  9993
2 61568  88.9801  75.8920 0004565 248.4939 111.5769 14.27981240 71389
QIANFAN-36              
1 61569U 24185T   25355.15629164  .00000186  00000+0  24997-3 0  9999
2 61569  88.9785  80.1705 0006441  35.8288 324.3297 13.55590873 69061
QIANFAN-37              
1 62238U 24232B   25355.06552171  .00000083  00000+0  11009-3 0  9995
2 62238  89.0012  40.4895 0002636  94.2152 265.9301 13.50979519100290
QIANFAN-38              
1 62239U 24232C   25355.16425562  .00000095  00000+0  12873-3 0  9993
2 62239  89.0018  40.3960 0015364 164.0176 196.1463 13.50982670100367
QIANFAN-39              
1 62240U 24232D   25355.12850801  .00000284  00000+0  11391-3 0  9993
2 62240  89.0008  36.3503 0017884  56.7977 303.4927 14.25396971102581
QIANFAN-40              
1 62241U 24232E   25355.19716913  .00000101  00000+0  13718-3 0  9999
2 62241  89.0046  39.9794 0014144 170.9753 189.1655 13.50982421100732
